{
  "type": "FeatureCollection",
  "features": [
    {
      "type": "Feature",
      "properties": {
        "norad_id": 39227,
        "name": "ARIRANG-5 (KOMPSAT-5)",
        "group": "resource",
        "lat": -62.63510747698542,
        "lon": -167.82268352887502,
        "alt_km": 560.6578956185931,
        "timestamp": "2025-12-18T23:35:48.704157+00:00",
        "meta_object_name": "ARIRANG-5 (KOMPSAT-5)",
        "meta_object_id": "2013-042A",
        "meta_epoch": "2025-12-18T14:18:07.790400",
        "meta_mean_motion": 15.04531933,
        "meta_eccentricity": 0.00034235,
        "meta_inclination": 97.6149,
        "meta_ra_of_asc_node": 176.8155,
        "meta_arg_of_pericenter": 40.2221,
        "meta_mean_anomaly": 319.9258,
        "meta_ephemeris_type": 0,
        "meta_classification_type": "U",
        "meta_norad_cat_id": 39227,
        "meta_element_set_no": 999,
        "meta_rev_at_epoch": 67670,
        "meta_bstar": 0.00017245264,
        "meta_mean_motion_dot": 2.356e-05,
        "meta_mean_motion_ddot": 0,
        "tle_line1": "1 39227U 13042A   25352.59592350  .00002356  00000+0  17245-3 0  9995",
        "tle_line2": "2 39227  97.6149 176.8155 0003423  40.2221 319.9258 15.04531933676704"
      },
      "geometry": {
        "type": "Point",
        "coordinates": [
          -167.82268352887502,
          -62.63510747698542
        ]
      }
    },
    {
      "type": "Feature",
      "properties": {
        "norad_id": 39418,
        "name": "SKYSAT-A",
        "group": "resource",
        "lat": 69.89308788880567,
        "lon": -116.17277627984188,
        "alt_km": 528.2511747635135,
        "timestamp": "2025-12-18T23:35:48.704167+00:00",
        "meta_object_name": "SKYSAT-A",
        "meta_object_id": "2013-066C",
        "meta_epoch": "2025-12-18T15:10:21.468288",
        "meta_mean_motion": 15.11644793,
        "meta_eccentricity": 0.00211351,
        "meta_inclination": 97.4102,
        "meta_ra_of_asc_node": 42.6619,
        "meta_arg_of_pericenter": 215.2249,
        "meta_mean_anomaly": 144.7586,
        "meta_ephemeris_type": 0,
        "meta_classification_type": "U",
        "meta_norad_cat_id": 39418,
        "meta_element_set_no": 999,
        "meta_rev_at_epoch": 66119,
        "meta_bstar": 0.00018990933,
        "meta_mean_motion_dot": 3.181e-05,
        "meta_mean_motion_ddot": 0,
        "tle_line1": "1 39418U 13066C   25352.63219292  .00003181  00000+0  18991-3 0  9995",
        "tle_line2": "2 39418  97.4102  42.6619 0021135 215.2249 144.7586 15.11644793661194"
      },
      "geometry": {
        "type": "Point",
        "coordinates": [
          -116.17277627984188,
          69.89308788880567
        ]
      }
    },
    {
      "type": "Feature",
      "properties": {
        "norad_id": 39419,
        "name": "DUBAISAT-2",
        "group": "resource",
        "lat": 1.5732402314425187,
        "lon": 163.40396569004076,
        "alt_km": 547.3787334948465,
        "timestamp": "2025-12-18T23:35:48.704177+00:00",
        "meta_object_name": "DUBAISAT-2",
        "meta_object_id": "2013-066D",
        "meta_epoch": "2025-12-18T14:50:51.442080",
        "meta_mean_motion": 15.08410629,
        "meta_eccentricity": 0.00100226,
        "meta_inclination": 97.444,
        "meta_ra_of_asc_node": 342.8449,
        "meta_arg_of_pericenter": 299.5465,
        "meta_mean_anomaly": 60.4765,
        "meta_ephemeris_type": 0,
        "meta_classification_type": "U",
        "meta_norad_cat_id": 39419,
        "meta_element_set_no": 999,
        "meta_rev_at_epoch": 65915,
        "meta_bstar": 0.00018342689,
        "meta_mean_motion_dot": 2.795e-05,
        "meta_mean_motion_ddot": 0,
        "tle_line1": "1 39419U 13066D   25352.61865095  .00002795  00000+0  18343-3 0  9993",
        "tle_line2": "2 39419  97.4440 342.8449 0010022 299.5465  60.4765 15.08410629659155"
      },
      "geometry": {
        "type": "Point",
        "coordinates": [
          163.40396569004076,
          1.5732402314425187
        ]
      }
    },
    {
      "type": "Feature",
      "properties": {
        "norad_id": 39574,
        "name": "GPM-CORE",
        "group": "resource",
        "lat": 55.08454592093147,
        "lon": -126.20651576011002,
        "alt_km": 432.9029261782189,
        "timestamp": "2025-12-18T23:35:48.704188+00:00",
        "meta_object_name": "GPM-CORE",
        "meta_object_id": "2014-009C",
        "meta_epoch": "2025-12-18T15:32:49.436160",
        "meta_mean_motion": 15.44552792,
        "meta_eccentricity": 0.00094855,
        "meta_inclination": 64.9721,
        "meta_ra_of_asc_node": 192.8971,
        "meta_arg_of_pericenter": 247.3609,
        "meta_mean_anomaly": 112.6529,
        "meta_ephemeris_type": 0,
        "meta_classification_type": "U",
        "meta_norad_cat_id": 39574,
        "meta_element_set_no": 999,
        "meta_rev_at_epoch": 66992,
        "meta_bstar": 0.00013952687,
        "meta_mean_motion_dot": 6.272e-05,
        "meta_mean_motion_ddot": 0,
        "tle_line1": "1 39574U 14009C   25352.64779440  .00006272  00000+0  13953-3 0  9990",
        "tle_line2": "2 39574  64.9721 192.8971 0009485 247.3609 112.6529 15.44552792669925"
      },
      "geometry": {
        "type": "Point",
        "coordinates": [
          -126.20651576011002,
          55.08454592093147
        ]
      }
    },
    {
      "type": "Feature",
      "properties": {
        "norad_id": 39634,
        "name": "SENTINEL-1A",
        "group": "resource",
        "lat": 37.26749109274261,
        "lon": -175.58372367213047,
        "alt_km": 692.653259276336,
        "timestamp": "2025-12-18T23:35:48.704198+00:00",
        "meta_object_name": "SENTINEL-1A",
        "meta_object_id": "2014-016A",
        "meta_epoch": "2025-12-18T14:43:08.220576",
        "meta_mean_motion": 14.59201653,
        "meta_eccentricity": 0.00012367,
        "meta_inclination": 98.1799,
        "meta_ra_of_asc_node": 357.7684,
        "meta_arg_of_pericenter": 81.6197,
        "meta_mean_anomaly": 278.5143,
        "meta_ephemeris_type": 0,
        "meta_classification_type": "U",
        "meta_norad_cat_id": 39634,
        "meta_element_set_no": 999,
        "meta_rev_at_epoch": 62368,
        "meta_bstar": 4.0400189e-05,
        "meta_mean_motion_dot": 1.45e-06,
        "meta_mean_motion_ddot": 0,
        "tle_line1": "1 39634U 14016A   25352.61328959  .00000145  00000+0  40400-4 0  9998",
        "tle_line2": "2 39634  98.1799 357.7684 0001236  81.6197 278.5143 14.59201653623685"
      },
      "geometry": {
        "type": "Point",
        "coordinates": [
          -175.58372367213047,
          37.26749109274261
        ]
      }
    },
    {
      "type": "Feature",
      "properties": {
        "norad_id": 39731,
        "name": "KAZEOSAT 1",
        "group": "resource",
        "lat": 81.37861171502882,
        "lon": -39.80196200101322,
        "alt_km": 743.4074197654854,
        "timestamp": "2025-12-18T23:35:48.704208+00:00",
        "meta_object_name": "KAZEOSAT 1",
        "meta_object_id": "2014-024A",
        "meta_epoch": "2025-12-18T14:50:41.831808",
        "meta_mean_motion": 14.42065513,
        "meta_eccentricity": 0.00011523,
        "meta_inclination": 98.3434,
        "meta_ra_of_asc_node": 64.3943,
        "meta_arg_of_pericenter": 97.525,
        "meta_mean_anomaly": 262.607,
        "meta_ephemeris_type": 0,
        "meta_classification_type": "U",
        "meta_norad_cat_id": 39731,
        "meta_element_set_no": 999,
        "meta_rev_at_epoch": 61253,
        "meta_bstar": 2.8750487e-05,
        "meta_mean_motion_dot": 5.2e-07,
        "meta_mean_motion_ddot": 0,
        "tle_line1": "1 39731U 14024A   25352.61853972  .00000052  00000+0  28750-4 0  9994",
        "tle_line2": "2 39731  98.3434  64.3943 0001152  97.5250 262.6070 14.42065513612533"
      },
      "geometry": {
        "type": "Point",
        "coordinates": [
          -39.80196200101322,
          81.37861171502882
        ]
      }
    },
    {
      "type": "Feature",
      "properties": {
        "norad_id": 39766,
        "name": "ALOS-2",
        "group": "resource",
        "lat": 80.29568209914905,
        "lon": -37.74037278749887,
        "alt_km": 622.6071753703854,
        "timestamp": "2025-12-18T23:35:48.704218+00:00",
        "meta_object_name": "ALOS-2",
        "meta_object_id": "2014-029A",
        "meta_epoch": "2025-12-18T13:25:38.381664",
        "meta_mean_motion": 14.79477181,
        "meta_eccentricity": 0.00013702,
        "meta_inclination": 97.9225,
        "meta_ra_of_asc_node": 87.323,
        "meta_arg_of_pericenter": 96.8901,
        "meta_mean_anomaly": 263.2467,
        "meta_ephemeris_type": 0,
        "meta_classification_type": "U",
        "meta_norad_cat_id": 39766,
        "meta_element_set_no": 999,
        "meta_rev_at_epoch": 62487,
        "meta_bstar": 0.00024909877,
        "meta_mean_motion_dot": 1.81e-05,
        "meta_mean_motion_ddot": 0,
        "tle_line1": "1 39766U 14029A   25352.55947201  .00001810  00000+0  24910-3 0  9995",
        "tle_line2": "2 39766  97.9225  87.3230 0001370  96.8901 263.2467 14.79477181624870"
      },
      "geometry": {
        "type": "Point",
        "coordinates": [
          -37.74037278749887,
          80.29568209914905
        ]
      }
    }
  ]
}